NORAD_CAT_ID,OBJECT_NAME,OBJECT_TYPE,EPOCH,MEAN_MOTION,ECCENTRICITY,INCLINATION,RA_OF_ASC_NODE,ARG_OF_PERICENTER,MEAN_ANOMALY,BSTAR,MEAN_MOTION_DOT,MEAN_MOTION_DDOT,TLE_LINE0,TLE_LINE1,TLE_LINE2,SEMIMAJOR_AXIS,PERIOD,APOGEE,PERIGEE,DECAYED
52471.0,STARLINK-3862,PAYLOAD,2023-06-19 18:56:00,15.08835187,9.1e-05,53.2163,200.9266,92.1776,267.932,7.3982e-05,8.9e-06,0.0,0 STARLINK-3862,1 52471U 22049W   23170.78889028  .00000890  00000-0  73982-4 0  9999,2 52471  53.2163 200.9266 0000910  92.1776 267.9320 15.08835187 62203,6917.895,95.438,540.39,539.131,0.0
52471.0,STARLINK-3862,PAYLOAD,2023-06-20 02:52:56,15.08833206,9.28e-05,53.2165,199.4399,93.3729,266.737,2.1937e-05,6.1e-07,0.0,0 STARLINK-3862,1 52471U 22049W   23171.12009451  .00000061  00000-0  21937-4 0  9995,2 52471  53.2165 199.4399 0000928  93.3729 266.7370 15.08833206 62419,6917.901,95.438,540.408,539.124,0.0
52471.0,STARLINK-3862,PAYLOAD,2023-06-21 09:05:15,15.08841966,9.37e-05,53.2166,193.79,92.1328,267.9771,5.608e-05,6.05e-06,0.0,0 STARLINK-3862,1 52471U 22049W   23172.37865028  .00000605  00000-0  56080-4 0  9994,2 52471  53.2166 193.7900 0000937  92.1328 267.9771 15.08841966 62608,6917.874,95.437,540.388,539.091,0.0
52471.0,STARLINK-3862,PAYLOAD,2023-06-21 18:37:34,15.08841371,9.74e-05,53.2168,192.0059,83.4237,276.6866,5.3376e-05,5.62e-06,0.0,0 STARLINK-3862,1 52471U 22049W   23172.77609081  .00000562  00000-0  53376-4 0  9990,2 52471  53.2168 192.0059 0000974  83.4237 276.6866 15.08841371 62501,6917.876,95.437,540.415,539.067,0.0
52471.0,STARLINK-3862,PAYLOAD,2023-06-22 18:28:21,15.08843653,8.71e-05,53.216,187.5446,86.4528,273.6564,5.627e-05,6.08e-06,0.0,0 STARLINK-3862,1 52471U 22049W   23173.76968973  .00000608  00000-0  56270-4 0  9995,2 52471  53.2160 187.5446 0000871  86.4528 273.6564 15.08843653 62815,6917.869,95.437,540.337,539.132,0.0
52471.0,STARLINK-3862,PAYLOAD,2023-06-24 03:51:27,15.08838636,9.1e-05,53.2158,181.3,85.0059,275.1037,1.1755e-05,-1.01e-06,0.0,0 STARLINK-3862,1 52471U 22049W   23175.16073254 -.00000101  00000-0  11755-4 0  9998,2 52471  53.2158 181.3000 0000910  85.0059 275.1037 15.08838636 63029,6917.885,95.438,540.379,539.12,0.0
52471.0,STARLINK-3862,PAYLOAD,2023-06-25 03:42:13,15.08846973,9.5e-05,53.2157,176.8396,84.1186,275.9914,8.8647e-05,1.124e-05,0.0,0 STARLINK-3862,1 52471U 22049W   23176.15432356  .00001124  00000-0  88647-4 0  9999,2 52471  53.2157 176.8396 0000950  84.1186 275.9914 15.08846973 63171,6917.859,95.437,540.381,539.067,0.0
52471.0,STARLINK-3862,PAYLOAD,2023-06-25 16:25:19,15.08836401,0.000162,53.2156,174.4606,77.5091,282.6082,5.9521e-06,-1.93e-06,0.0,0 STARLINK-3862,1 52471U 22049W   23176.68425430 -.00000193  00000-0  59521-5 0  9998,2 52471  53.2156 174.4606 0001620  77.5091 282.6082 15.08836401 63259,6917.891,95.438,540.877,538.636,0.0
52471.0,STARLINK-3862,PAYLOAD,2023-06-27 03:23:48,15.08837281,9.45e-05,53.2163,167.9195,90.291,269.819,-3.791e-05,-8.91e-06,0.0,0 STARLINK-3862,1 52471U 22049W   23178.14153770 -.00000891  00000-0 -37910-4 0  9999,2 52471  53.2163 167.9195 0000945  90.2910 269.8190 15.08837281 63476,6917.889,95.438,540.407,539.1,0.0
52471.0,STARLINK-3862,PAYLOAD,2023-06-28 06:25:22,15.08836848,9.19e-05,53.2162,162.864,92.5427,267.567,0.00014098,1.956e-05,0.0,0 STARLINK-3862,1 52471U 22049W   23179.26761737  .00001956  00000-0  14098-3 0  9993,2 52471  53.2162 162.8640 0000919  92.5427 267.5670 15.08836848 63648,6917.89,95.438,540.391,539.119,0.0
52471.0,STARLINK-3862,PAYLOAD,2023-06-29 07:51:32,15.08841794,9.45e-05,53.2164,158.1061,94.5214,265.5886,0.00012983,1.779e-05,0.0,0 STARLINK-3862,1 52471U 22049W   23180.32745738  .00001779  00000-0  12983-3 0  9999,2 52471  53.2164 158.1061 0000945  94.5214 265.5886 15.08841794 63801,6917.875,95.437,540.394,539.086,0.0
52471.0,STARLINK-3862,PAYLOAD,2023-06-30 15:39:15,15.08838168,9.43e-05,53.2155,152.1586,91.6879,268.4221,3.6626e-05,2.95e-06,0.0,0 STARLINK-3862,1 52471U 22049W   23181.65226067  .00000295  00000-0  36626-4 0  9998,2 52471  53.2155 152.1586 0000943  91.6879 268.4221 15.08838168 64009,6917.886,95.438,540.403,539.099,0.0
52471.0,STARLINK-3862,PAYLOAD,2023-07-01 01:11:34,15.08832288,0.0001059,53.2161,150.3736,94.5652,265.5461,-2.568e-05,-6.96e-06,0.0,0 STARLINK-3862,1 52471U 22049W   23182.04970635 -.00000696  00000-0 -25680-4 0  9994,2 52471  53.2161 150.3736 0001059  94.5652 265.5461 15.08832288 64060,6917.904,95.438,540.502,539.036,0.0
52471.0,STARLINK-3862,PAYLOAD,2023-07-02 01:02:21,15.08843089,0.0001152,53.2169,145.914,88.3449,271.7675,4.2332e-05,3.86e-06,0.0,0 STARLINK-3862,1 52471U 22049W   23183.04329930  .00000386  00000-0  42332-4 0  9998,2 52471  53.2169 145.9140 0001152  88.3449 271.7675 15.08843089 64210,6917.871,95.437,540.533,538.939,0.0
52471.0,STARLINK-3862,PAYLOAD,2023-07-03 02:28:31,15.08835757,0.000109,53.2166,141.1553,84.7361,275.3756,0.00011558,1.552e-05,0.0,0 STARLINK-3862,1 52471U 22049W   23184.10314308  .00001552  00000-0  11558-3 0  9990,2 52471  53.2166 141.1553 0001090  84.7361 275.3756 15.08835757 64377,6917.893,95.438,540.512,539.004,0.0
52471.0,STARLINK-3862,PAYLOAD,2023-07-04 07:05:28,15.08840041,0.0001097,53.2171,135.8035,83.1261,276.9856,1.2098e-05,-9.5e-07,0.0,0 STARLINK-3862,1 52471U 22049W   23185.29546500 -.00000095  00000-0  12098-4 0  9995,2 52471  53.2171 135.8035 0001097  83.1261 276.9856 15.08840041 64557,6917.88,95.438,540.504,538.986,0.0
52471.0,STARLINK-3862,PAYLOAD,2023-07-06 05:11:39,15.08839916,0.000102,53.2164,127.1807,88.1668,271.9441,6.1456e-05,6.9e-06,0.0,0 STARLINK-3862,1 52471U 22049W   23187.21642849  .00000690  00000-0  61456-4 0  9994,2 52471  53.2164 127.1807 0001020  88.1668 271.9441 15.08839916 64848,6917.881,95.438,540.451,539.04,0.0
52471.0,STARLINK-3862,PAYLOAD,2023-07-07 12:59:21,15.08844464,0.0001181,53.217,121.2345,82.2767,277.8359,0.00011274,1.507e-05,0.0,0 STARLINK-3862,1 52471U 22049W   23188.54122609  .00001507  00000-0  11274-3 0  9998,2 52471  53.2170 121.2345 0001181  82.2767 277.8359 15.08844464 65040,6917.867,95.437,540.549,538.915,0.0
52471.0,STARLINK-3862,PAYLOAD,2023-07-08 12:50:09,15.08838713,0.0001075,53.2155,116.7726,95.3408,264.7707,2.6308e-05,1.31e-06,0.0,0 STARLINK-3862,1 52471U 22049W   23189.53483062  .00000131  00000-0  26308-4 0  9998,2 52471  53.2155 116.7726 0001075  95.3408 264.7707 15.08838713 65192,6917.884,95.438,540.493,539.006,0.0
52471.0,STARLINK-3862,PAYLOAD,2023-07-10 04:34:47,15.08843635,0.0001077,53.2172,109.3375,102.4054,257.7059,-1.084e-05,-4.6e-06,0.0,0 STARLINK-3862,1 52471U 22049W   23191.19083043 -.00000460  00000-0 -10840-4 0  9999,2 52471  53.2172 109.3375 0001077 102.4054 257.7059 15.08843635 65447,6917.869,95.437,540.479,538.989,0.0
52471.0,STARLINK-3862,PAYLOAD,2023-07-10 18:53:16,15.08833394,9.08e-05,53.2165,106.6632,96.5342,263.5754,7.7916e-05,9.52e-06,0.0,0 STARLINK-3862,1 52471U 22049W   23191.78699581  .00000952  00000-0  77916-4 0  9995,2 52471  53.2165 106.6632 0000908  96.5342 263.5754 15.08833394 65538,6917.901,95.438,540.394,539.137,0.0
52471.0,STARLINK-3862,PAYLOAD,2023-07-11 01:14:48,15.08840526,9.37e-05,53.2164,105.4746,101.4235,258.6863,0.00014091,1.956e-05,0.0,0 STARLINK-3862,1 52471U 22049W   23192.05194936  .00001956  00000-0  14091-3 0  9999,2 52471  53.2164 105.4746 0000937 101.4235 258.6863 15.08840526 65574,6917.879,95.438,540.392,539.096,0.0
52471.0,STARLINK-3862,PAYLOAD,2023-07-11 18:44:03,15.0883952,9.9e-05,53.218,102.2053,101.839,258.2713,1.5878e-05,-3.5e-07,0.0,0 STARLINK-3862,1 52471U 22049W   23192.78059558 -.00000035  00000-0  15878-4 0  9992,2 52471  53.2180 102.2053 0000990 101.8390 258.2713 15.08839520 65687,6917.882,95.438,540.432,539.062,0.0
52471.0,STARLINK-3862,PAYLOAD,2023-07-13 16:50:14,15.08834374,0.0001092,53.2176,93.5794,86.8172,273.2945,-9.4882e-06,-4.39e-06,0.0,0 STARLINK-3862,1 52471U 22049W   23194.70156212 -.00000439  00000-0 -94882-5 0  9993,2 52471  53.2176  93.5794 0001092  86.8172 273.2945 15.08834374 65978,6917.898,95.438,540.518,539.007,0.0
52471.0,STARLINK-3862,PAYLOAD,2023-07-15 02:13:19,15.08855741,0.0001256,53.2173,87.3329,102.5115,257.6018,5.2113e-05,5.42e-06,0.0,0 STARLINK-3862,1 52471U 22049W   23196.09258664  .00000542  00000-0  52113-4 0  9994,2 52471  53.2173  87.3329 0001256 102.5115 257.6018 15.08855741 66187,6917.832,95.437,540.566,538.828,0.0
52471.0,STARLINK-3862,PAYLOAD,2023-07-15 18:07:12,15.08837643,0.0001242,53.2177,84.3597,89.8211,270.2923,3.4492e-05,2.61e-06,0.0,0 STARLINK-3862,1 52471U 22049W   23196.75500046  .00000261  00000-0  34492-4 0  9999,2 52471  53.2177  84.3597 0001242  89.8211 270.2923 15.08837643 66282,6917.888,95.438,540.612,538.893,0.0
52471.0,STARLINK-3862,PAYLOAD,2023-07-16 22:44:07,15.08851973,0.0001176,53.2183,79.0065,91.6291,268.4836,-4.02e-05,-9.28e-06,0.0,0 STARLINK-3862,1 52471U 22049W   23197.94731378 -.00000928  00000-0 -40200-4 0  9991,2 52471  53.2183  79.0065 0001176  91.6291 268.4836 15.08851973 66469,6917.844,95.437,540.522,538.895,0.0
52471.0,STARLINK-3862,PAYLOAD,2023-07-18 01:45:40,15.08854098,0.0001291,53.219,73.9506,87.9762,272.1378,1.4221e-05,-6.1e-07,0.0,0 STARLINK-3862,1 52471U 22049W   23199.07338922 -.00000061  00000-0  14221-4 0  9996,2 52471  53.2190  73.9506 0001291  87.9762 272.1378 15.08854098 66632,6917.837,95.437,540.595,538.809,0.0
52471.0,STARLINK-3862,PAYLOAD,2023-07-19 00:01:05,15.08839603,0.0001306,53.2201,69.7946,109.257,250.8564,-2.3024e-05,-6.54e-06,0.0,0 STARLINK-3862,1 52471U 22049W   23200.00076198 -.00000654  00000-0 -23024-4 0  9996,2 52471  53.2201  69.7946 0001306 109.2570 250.8564 15.08839603 66778,6917.882,95.438,540.65,538.843,0.0
52471.0,STARLINK-3862,PAYLOAD,2023-07-19 19:05:44,15.08835162,0.0001582,53.2199,66.2301,129.416,230.6973,-5.2316e-05,-1.12e-05,0.0,0 STARLINK-3862,1 52471U 22049W   23200.79564918 -.00001120  00000-0 -52316-4 0  9999,2 52471  53.2199  66.2301 0001582 129.4160 230.6973 15.08835162 66895,6917.895,95.438,540.855,538.666,0.0
